EUTELSAT HOTBIRD 13F    
1 54048U 22134A   25334.07995270  .00000109  00000+0  00000+0 0  9997
2 54048   0.0528 288.8237 0002026  69.7063 112.4774  1.00271458 11384
EUTELSAT HOTBIRD 13G    
1 54225U 22146A   25334.07995270  .00000109  00000+0  00000+0 0  9997
2 54225   0.0464 237.7867 0002018 306.1223 287.0932  1.00272720  5470
EUTELSAT 10B            
1 54259U 22157A   25334.07943270  .00000090  00000+0  00000+0 0  9998
2 54259   0.0555 105.1101 0001087  61.8448 300.8997  1.00268812 11037
EUTELSAT 36D            
1 59346U 24059A   25334.07267022  .00000177  00000+0  00000+0 0  9993
2 59346   0.0022  11.0539 0000323 274.6952 205.5142  1.00271684  6155
