{
  "type": "FeatureCollection",
  "features": [
    {
      "type": "Feature",
      "properties": {
        "OBJECT_NAME": "EUTELSAT HOTBIRD 13F",
        "OBJECT_ID": "2022-134A",
        "EPOCH": "2025-11-30T01:55:07.913280",
        "MEAN_MOTION": 1.00271458,
        "ECCENTRICITY": 0.0002026,
        "INCLINATION": 0.0528,
        "RA_OF_ASC_NODE": 288.8237,
        "ARG_OF_PERICENTER": 69.7063,
        "MEAN_ANOMALY": 112.4774,
        "EPHEMERIS_TYPE": 0,
        "CLASSIFICATION_TYPE": "U",
        "NORAD_CAT_ID": 54048,
        "ELEMENT_SET_NO": 999,
        "REV_AT_EPOCH": 1138,
        "BSTAR": 0,
        "MEAN_MOTION_DOT": 1.09e-06,
        "MEAN_MOTION_DDOT": 0,
        "norad_id": 54048,
        "name": "EUTELSAT HOTBIRD 13F",
        "group": "eutelsat",
        "longitude_deg": NaN,
        "latitude_deg": NaN,
        "alt_km": NaN,
        "orbit_class": "HEO",
        "timestamp": "2025-11-30T08:43:09.328099+00:00"
      },
      "geometry": {
        "type": "Point",
        "coordinates": [
          NaN,
          NaN
        ]
      }
    },
    {
      "type": "Feature",
      "properties": {
        "OBJECT_NAME": "EUTELSAT HOTBIRD 13G",
        "OBJECT_ID": "2022-146A",
        "EPOCH": "2025-11-30T01:55:07.913280",
        "MEAN_MOTION": 1.0027272,
        "ECCENTRICITY": 0.0002018,
        "INCLINATION": 0.0464,
        "RA_OF_ASC_NODE": 237.7867,
        "ARG_OF_PERICENTER": 306.1223,
        "MEAN_ANOMALY": 287.0932,
        "EPHEMERIS_TYPE": 0,
        "CLASSIFICATION_TYPE": "U",
        "NORAD_CAT_ID": 54225,
        "ELEMENT_SET_NO": 999,
        "REV_AT_EPOCH": 547,
        "BSTAR": 0,
        "MEAN_MOTION_DOT": 1.09e-06,
        "MEAN_MOTION_DDOT": 0,
        "norad_id": 54225,
        "name": "EUTELSAT HOTBIRD 13G",
        "group": "eutelsat",
        "longitude_deg": NaN,
        "latitude_deg": NaN,
        "alt_km": NaN,
        "orbit_class": "HEO",
        "timestamp": "2025-11-30T08:43:09.329050+00:00"
      },
      "geometry": {
        "type": "Point",
        "coordinates": [
          NaN,
          NaN
        ]
      }
    },
    {
      "type": "Feature",
      "properties": {
        "OBJECT_NAME": "EUTELSAT 10B",
        "OBJECT_ID": "2022-157A",
        "EPOCH": "2025-11-30T01:54:22.985280",
        "MEAN_MOTION": 1.00268812,
        "ECCENTRICITY": 0.0001087,
        "INCLINATION": 0.0555,
        "RA_OF_ASC_NODE": 105.1101,
        "ARG_OF_PERICENTER": 61.8448,
        "MEAN_ANOMALY": 300.8997,
        "EPHEMERIS_TYPE": 0,
        "CLASSIFICATION_TYPE": "U",
        "NORAD_CAT_ID": 54259,
        "ELEMENT_SET_NO": 999,
        "REV_AT_EPOCH": 1103,
        "BSTAR": 0,
        "MEAN_MOTION_DOT": 9e-07,
        "MEAN_MOTION_DDOT": 0,
        "norad_id": 54259,
        "name": "EUTELSAT 10B",
        "group": "eutelsat",
        "longitude_deg": NaN,
        "latitude_deg": NaN,
        "alt_km": NaN,
        "orbit_class": "HEO",
        "timestamp": "2025-11-30T08:43:09.329138+00:00"
      },
      "geometry": {
        "type": "Point",
        "coordinates": [
          NaN,
          NaN
        ]
      }
    },
    {
      "type": "Feature",
      "properties": {
        "OBJECT_NAME": "EUTELSAT 36D",
        "OBJECT_ID": "2024-059A",
        "EPOCH": "2025-11-30T01:44:38.707008",
        "MEAN_MOTION": 1.00271684,
        "ECCENTRICITY": 3.23e-05,
        "INCLINATION": 0.0022,
        "RA_OF_ASC_NODE": 11.0539,
        "ARG_OF_PERICENTER": 274.6952,
        "MEAN_ANOMALY": 205.5142,
        "EPHEMERIS_TYPE": 0,
        "CLASSIFICATION_TYPE": "U",
        "NORAD_CAT_ID": 59346,
        "ELEMENT_SET_NO": 999,
        "REV_AT_EPOCH": 615,
        "BSTAR": 0,
        "MEAN_MOTION_DOT": 1.77e-06,
        "MEAN_MOTION_DDOT": 0,
        "norad_id": 59346,
        "name": "EUTELSAT 36D",
        "group": "eutelsat",
        "longitude_deg": NaN,
        "latitude_deg": NaN,
        "alt_km": NaN,
        "orbit_class": "HEO",
        "timestamp": "2025-11-30T08:43:09.350673+00:00"
      },
      "geometry": {
        "type": "Point",
        "coordinates": [
          NaN,
          NaN
        ]
      }
    }
  ]
}